SENTINEL-2A             
1 40697U 15028A   20210.73205472  .00000001  00000-0  17104-4 0  9995
2 40697  98.5686 284.3850 0001122  90.6388 269.4925 14.30816922266366
AVUM R/B                
1 40698U 15028B   20210.72165991  .00001114  00000-0  53356-4 0  9991
2 40698  98.6444 149.7980 0253859 242.6085 114.9100 14.97832555278452
